O3B FM5                 
1 39188U 13031A   22335.38582790 -.00000020  00000+0  00000+0 0  9995
2 39188   0.0658  10.2606 0002810 245.1109 104.6000  5.00115298172314
O3B FM4                 
1 39189U 13031B   22335.44177805 -.00000020  00000+0  00000+0 0  9990
2 39189   0.0424 353.6302 0002754 261.4496 104.8924  5.00115811172330
O3B FM2                 
1 39190U 13031C   22335.53326683 -.00000020  00000+0  00000+0 0  9992
2 39190   0.0396 347.6638 0002749 265.5379 106.7708  5.00115093172393
O3B PFM                 
1 39191U 13031D   22335.35961622 -.00000020  00000+0  00000+0 0  9991
2 39191   0.0572   7.7657 0002740 242.8245 109.3829  5.00115753171942
O3B FM3                 
1 40079U 14038A   22335.41443481 -.00000020  00000+0  00000+0 0  9991
2 40079   0.0488 359.2536 0004514 225.0427 135.6703  5.00115312148311
O3B FM7                 
1 40080U 14038B   22335.36050075 -.00000020  00000+0  00000+0 0  9990
2 40080   0.0486 354.0391 0002685 297.2658  68.6691  5.00115503153158
O3B FM6                 
1 40081U 14038C   22335.38689583 -.00000020  00000+0  00000+0 0  9995
2 40081   0.0478 359.4836 0002808 251.3261 109.1627  5.00115269153105
O3B FM8                 
1 40082U 14038D   22335.44077116 -.00000020  00000+0  00000+0 0  9996
2 40082   0.0447 358.1781 0002674 250.5045 111.2915  5.00115647153226
O3B FM10                
1 40348U 14083A   22335.06712486 -.00000020  00000+0  00000+0 0  9995
2 40348   0.0522   8.6006 0002722 241.5098 109.8629  5.00115117145143
O3B FM11                
1 40349U 14083B   22335.48032716 -.00000020  00000+0  00000+0 0  9993
2 40349   0.0554   4.9263 0002940 259.7146  95.3282  5.00115358145185
O3B FM12                
1 40350U 14083C   22335.30766291 -.00000020  00000+0  00000+0 0  9998
2 40350   0.0545   4.8634 0002907 247.5630 107.5444  5.00115208145195
O3B FM9                 
1 40351U 14083D   22335.53431568 -.00000020  00000+0  00000+0 0  9990
2 40351   0.0565   4.3443 0002724 247.3563 108.2724  5.00116087145354
DIAMOND RED             
1 42783U 17036U   22335.09068692  .00009481  00000+0  32148-3 0  9998
2 42783  97.1806  10.2876 0011541  95.2001 265.0558 15.30681506302405
DIAMOND GREEN           
1 42785U 17036W   22335.54695644  .00011599  00000+0  39125-3 0  9998
2 42785  97.1809  10.7985 0011372  95.6840 264.5699 15.30796854302541
DIAMOND BLUE            
1 42786U 17036X   22335.08912767  .00010300  00000+0  34827-3 0  9999
2 42786  97.1808  10.3465 0011508  96.8532 263.4019 15.30749667302478
LEO VANTAGE 1           
1 43113U 18004C   22335.20870839  .00001799  00000+0  14791-3 0  9997
2 43113  99.2432  73.0937 0399332  50.2225 313.3427 14.54666414248476
O3B FM15                
1 43231U 18024A   22335.40036887 -.00000020  00000+0  00000+0 0  9990
2 43231   0.0503  11.8696 0003062 239.7941 108.3056  5.00116119 86292
O3B FM16                
1 43232U 18024B   22335.25389276 -.00000020  00000+0  00000+0 0  9997
2 43232   0.0492  16.5471 0003057 235.3885 108.0338  5.00115913 86219
O3B FM14                
1 43233U 18024C   22335.29361687 -.00000020  00000+0  00000+0 0  9998
2 43233   0.0482  17.9291 0002969 237.4875 104.5531  5.00115314 86229
O3B FM13                
1 43234U 18024D   22335.54703908 -.00000020  00000+0  00000+0 0  9993
2 43234   0.0599   9.7974 0003893 242.8255 107.3372  5.00115250 86352
O3B FM20                
1 44112U 19020A   22334.72063607 -.00000019  00000+0  00000+0 0  9998
2 44112   0.0515   8.3185 0003349 247.2732 104.3739  5.00115418 66819
O3B FM19                
1 44113U 19020B   22335.54704655 -.00000020  00000+0  00000+0 0  9997
2 44113   0.0732  15.8356 0002357 264.6828  79.4578  5.00115314 66729
O3B FM17                
1 44114U 19020C   22335.42759470 -.00000020  00000+0  00000+0 0  9990
2 44114   0.0321  12.2763 0003185 239.1025 108.5893  5.00115618 66803
O3B FM18                
1 44115U 19020D   22335.37408834 -.00000020  00000+0  00000+0 0  9990
2 44115   0.0519   8.3750 0002966 241.7323 109.8633  5.00115740 66926
SALSAT                  
1 46495U 20068K   22335.32483652  .00003110  00000+0  22071-3 0  9991
2 46495  97.7476 276.8954 0017779  73.0693 287.2481 15.05378378119280
